{
    "links": {
        "self": "http://www.neowsapp.com/rest/v1/neo/54016494?api_key=iIulBulltgU6a56xZRHN4H3l9WmuAYTsLGpBGhQ2"
    },
    "id": "54016494",
    "neo_reference_id": "54016494",
    "name": "(2020 GE2)",
    "designation": "2020 GE2",
    "nasa_jpl_url": "http://ssd.jpl.nasa.gov/sbdb.cgi?sstr=54016494",
    "absolute_magnitude_h": 20.8,
    "estimated_diameter": {
        "kilometers": {
            "estimated_diameter_min": 0.1838886721,
            "estimated_diameter_max": 0.411187571
        },
        "meters": {
            "estimated_diameter_min": 183.8886720703,
            "estimated_diameter_max": 411.1875710413
        },
        "miles": {
            "estimated_diameter_min": 0.1142630881,
            "estimated_diameter_max": 0.2555000322
        },
        "feet": {
            "estimated_diameter_min": 603.309310875,
            "estimated_diameter_max": 1349.040630575
        }
    },
    "is_potentially_hazardous_asteroid": false,
    "close_approach_data": [
        {
            "close_approach_date": "2020-04-24",
            "close_approach_date_full": "2020-Apr-24 12:35",
            "epoch_date_close_approach": 1587731700000,
            "relative_velocity": {
                "kilometers_per_second": "16.7113881328",
                "kilometers_per_hour": "60160.9972782294",
                "miles_per_hour": "37381.7041143532"
            },
            "miss_distance": {
                "astronomical": "0.3405919949",
                "lunar": "132.4902860161",
                "kilometers": "50951836.976090863",
                "miles": "31660003.4030773894"
            },
            "orbiting_body": "Earth"
        },
        {
            "close_approach_date": "2026-02-02",
            "close_approach_date_full": "2026-Feb-02 14:04",
            "epoch_date_close_approach": 1770041040000,
            "relative_velocity": {
                "kilometers_per_second": "6.4791554962",
                "kilometers_per_hour": "23324.9597863564",
                "miles_per_hour": "14493.2229294724"
            },
            "miss_distance": {
                "astronomical": "1.1687438654",
                "lunar": "454.6413636406",
                "kilometers": "174841592.839406698",
                "miles": "108641528.0158125124"
            },
            "orbiting_body": "Juptr"
        }
    ],
    "orbital_data": {
        "orbit_id": "6",
        "orbit_determination_date": "2020-04-16 06:09:25",
        "first_observation_date": "2020-03-23",
        "last_observation_date": "2020-04-15",
        "data_arc_in_days": 23,
        "observations_used": 45,
        "orbit_uncertainty": "8",
        "minimum_orbit_intersection": ".224319",
        "jupiter_tisserand_invariant": "2.981",
        "epoch_osculation": "2458939.5",
        "eccentricity": ".7712357811752525",
        "semi_major_axis": "2.425815778361737",
        "inclination": "15.84586680715213",
        "ascending_node_longitude": "141.3501059918126",
        "orbital_period": "1380.019272923849",
        "perihelion_distance": ".5549398515496696",
        "perihelion_argument": "147.8104654123559",
        "aphelion_distance": "4.296691705173804",
        "perihelion_time": "2459005.953762103649",
        "mean_anomaly": "342.6644780788987",
        "mean_motion": ".2608659219934426",
        "equinox": "J2000",
        "orbit_class": {
            "orbit_class_type": "APO",
            "orbit_class_description": "Near-Earth asteroid orbits which cross the Earth’s orbit similar to that of 1862 Apollo",
            "orbit_class_range": "a (semi-major axis) > 1.0 AU; q (perihelion) < 1.017 AU"
        }
    },
    "is_sentry_object": false
}